OBJECT_NAME,OBJECT_ID,EPOCH,MEAN_MOTION,ECCENTRICITY,INCLINATION,RA_OF_ASC_NODE,ARG_OF_PERICENTER,MEAN_ANOMALY,EPHEMERIS_TYPE,CLASSIFICATION_TYPE,NORAD_CAT_ID,ELEMENT_SET_NO,REV_AT_EPOCH,BSTAR,MEAN_MOTION_DOT,MEAN_MOTION_DDOT
HAWK-10A,2024-149CA,2026-06-22T10:50:35.515680,14.96528312,.00046635,97.6895,249.2729,64.5668,295.6036,0,U,60540,999,10077,.56632977E-4,.587E-5,0
UMBRA-09,2024-149CB,2026-06-22T16:04:54.283872,15.18172108,.00010365,97.6964,260.9697,244.0680,116.0447,0,U,60541,999,10155,.54292967E-3,.11031E-3,0
QPS-SAR-8 (AMATERU-IV),2024-149CC,2026-06-21T23:36:07.831872,15.04165142,.00043827,97.6647,252.0930,98.2039,261.9684,0,U,60542,999,10099,.2734085E-3,.3733E-4,0
ARCTIC WEATHER SATELLITE,2024-149CD,2026-06-22T04:35:07.548576,14.89788474,.00036878,97.6801,243.5137,94.5121,265.6518,0,U,60543,999,10004,.60872463E-4,.53E-5,0
CAPELLA-15 (ACADIA-5),2024-149CE,2026-06-22T11:38:40.193952,14.92415262,.00046056,97.6770,246.2565,65.5130,294.6570,0,U,60544,999,10064,.33084263E-3,.3334E-4,0
HAWK-10B,2024-149CF,2026-06-22T10:50:22.811424,14.96527077,.00066888,97.6816,248.6226,78.3698,281.8274,0,U,60545,999,10077,.5558506E-4,.575E-5,0
ICEYE-X39,2024-149CG,2026-06-22T11:32:09.742848,14.99920673,.000588,97.6758,250.4320,105.1111,255.0763,0,U,60546,999,10091,.19546143E-3,.2367E-4,0
UMBRA-10,2024-149CH,2026-06-22T16:04:15.776256,15.18176104,.00002639,97.6968,260.9975,125.9438,234.1820,0,U,60547,999,10156,.60589498E-3,.12323E-3,0
ICEYE-X33,2024-149CJ,2026-06-22T12:03:47.962944,15.00903686,.00019384,97.7294,252.6144,85.0479,275.0966,0,U,60548,999,10100,.28592288E-3,.358E-4,0
ICEYE-X40,2024-149CK,2026-06-22T10:42:25.778016,14.97958047,.0006232,97.6818,249.8577,66.7576,293.4302,0,U,60549,999,10086,.89067361E-4,.993E-5,0
SATELIOT_1,2024-149CL,2026-06-22T15:17:37.955040,14.98091637,.00082986,97.6760,249.4448,64.4468,295.7611,0,U,60550,999,10088,.15264531E-3,.1749E-4,0
BRO-14,2024-149CM,2026-06-22T11:29:21.328512,14.96184535,.00080938,97.6870,249.1613,83.5883,276.6260,0,U,60551,999,10078,.95315324E-4,.1017E-4,0
SATELIOT_3,2024-149CN,2026-06-22T11:30:28.279008,14.98069336,.00059998,97.6813,250.0853,74.8993,285.2893,0,U,60552,999,10087,.13947219E-3,.1592E-4,0
BRO-15,2024-149CP,2026-06-22T15:53:03.425280,14.96168266,.00092942,97.6801,248.9371,71.7530,288.4702,0,U,60553,999,10082,.11590758E-3,.1249E-4,0
UM5-RIBAT,2024-149CQ,2026-06-22T11:19:10.400160,15.01098333,.00031441,97.6627,251.2010,53.5000,306.6513,0,U,60554,999,10098,.16904807E-3,.2104E-4,0
UM5-EOSAT,2024-149CR,2026-06-21T18:28:50.402784,15.01562808,.00089565,97.6723,251.4521,101.1074,259.1158,0,U,60555,999,10090,.2628818E-3,.3348E-4,0
LASARSAT,2024-247Q,2026-06-22T04:59:55.341888,15.46631788,.00076237,44.9730,233.9932,0.6101,359.4797,0,U,62391,999,8409,.47719485E-3,.24063E-3,0
CROCUBE,2024-247T,2026-06-22T10:59:27.196224,15.48568004,.00075087,44.9701,229.8368,6.8076,353.2915,0,U,62394,999,8416,.48672981E-3,.26289E-3,0
TEVEL2-4,2025-052D,2026-06-21T16:20:53.152800,15.34745367,.00049651,97.3895,69.0801,94.6694,265.5117,0,U,63213,999,7080,.42940989E-3,.14398E-3,0
TEVEL2-5,2025-052E,2026-06-22T10:04:00.784992,15.34589962,.00048894,97.3894,69.7659,94.7236,265.4565,0,U,63214,999,7091,.41120987E-3,.13715E-3,0
TEVEL2-6,2025-052F,2026-06-22T05:40:14.649024,15.34550217,.00047576,97.3899,69.5668,95.5111,264.6675,0,U,63215,999,7088,.41840655E-3,.13939E-3,0
TEVEL2-1,2025-052H,2026-06-21T16:19:11.133408,15.33994869,.00049053,97.3870,68.6292,104.4145,255.7643,0,U,63217,999,7078,.41431826E-3,.13561E-3,0
TEVEL2-3,2025-052J,2026-06-22T04:42:40.333824,15.34065187,.0004858,97.3873,69.1678,103.9663,256.2121,0,U,63218,999,7086,.41869374E-3,.13736E-3,0
TEVEL2-2,2025-052K,2026-06-22T06:24:59.446080,15.34020096,.00049036,97.3874,69.2190,103.8133,256.3656,0,U,63219,999,7087,.42061815E-3,.1378E-3,0
TEVEL2-9,2025-052AD,2026-06-22T10:44:06.917856,15.32032450,.00081841,97.3936,68.7627,116.4765,243.7317,0,U,63237,999,7083,.40512714E-3,.12471E-3,0
TEVEL2-7,2025-052AE,2026-06-22T05:28:11.917344,15.31728224,.00082256,97.3939,68.4578,117.2661,242.9419,0,U,63238,999,7079,.38496579E-3,.11733E-3,0
TEVEL2-8,2025-052AF,2026-06-22T16:38:39.780672,15.31724980,.00082493,97.3936,68.8989,116.5342,243.6747,0,U,63239,999,7086,.39165736E-3,.11938E-3,0
FORESAIL-1 PRIME,2025-276DS,2026-06-22T19:04:14.218464,15.18744024,.00039269,97.4197,246.9630,92.2358,267.9326,0,U,66778,999,3125,.16914383E-3,.3446E-4,0
