HAWK-10A                
1 60540U 24149CA  26173.45179995  .00000587  00000+0  56633-4 0  9999
2 60540  97.6895 249.2729 0004663  64.5668 295.6036 14.96528312100777
UMBRA-09                
1 60541U 24149CB  26173.67007273  .00011031  00000+0  54293-3 0  9998
2 60541  97.6964 260.9697 0001036 244.0680 116.0447 15.18172108101551
QPS-SAR-8 (AMATERU-IV)  
1 60542U 24149CC  26172.98342398  .00003733  00000+0  27341-3 0  9996
2 60542  97.6647 252.0930 0004382  98.2039 261.9684 15.04165142100991
ARCTIC WEATHER SATELLITE
1 60543U 24149CD  26173.19105959  .00000530  00000+0  60872-4 0  9990
2 60543  97.6801 243.5137 0003687  94.5121 265.6518 14.89788474100040
CAPELLA-15 (ACADIA-5)   
1 60544U 24149CE  26173.48518743  .00003334  00000+0  33084-3 0  9991
2 60544  97.6770 246.2565 0004605  65.5130 294.6570 14.92415262100642
HAWK-10B                
1 60545U 24149CF  26173.45165291  .00000575  00000+0  55585-4 0  9990
2 60545  97.6816 248.6226 0006688  78.3698 281.8274 14.96527077100773
ICEYE-X39               
1 60546U 24149CG  26173.48066832  .00002367  00000+0  19546-3 0  9992
2 60546  97.6758 250.4320 0005880 105.1111 255.0763 14.99920673100911
UMBRA-10                
1 60547U 24149CH  26173.66962704  .00012323  00000+0  60589-3 0  9992
2 60547  97.6968 260.9975 0000263 125.9438 234.1820 15.18176104101567
ICEYE-X33               
1 60548U 24149CJ  26173.50263846  .00003580  00000+0  28592-3 0  9990
2 60548  97.7294 252.6144 0001938  85.0479 275.0966 15.00903686101006
ICEYE-X40               
1 60549U 24149CK  26173.44613169  .00000993  00000+0  89067-4 0  9991
2 60549  97.6818 249.8577 0006232  66.7576 293.4302 14.97958047100869
SATELIOT_1              
1 60550U 24149CL  26173.63724485  .00001749  00000+0  15265-3 0  9996
2 60550  97.6760 249.4448 0008298  64.4468 295.7611 14.98091637100883
BRO-14                  
1 60551U 24149CM  26173.47871908  .00001017  00000+0  95315-4 0  9995
2 60551  97.6870 249.1613 0008093  83.5883 276.6260 14.96184535100788
SATELIOT_3              
1 60552U 24149CN  26173.47949397  .00001592  00000+0  13947-3 0  9992
2 60552  97.6813 250.0853 0005999  74.8993 285.2893 14.98069336100871
BRO-15                  
1 60553U 24149CP  26173.66184520  .00001249  00000+0  11591-3 0  9995
2 60553  97.6801 248.9371 0009294  71.7530 288.4702 14.96168266100824
UM5-RIBAT               
1 60554U 24149CQ  26173.47164815  .00002104  00000+0  16905-3 0  9995
2 60554  97.6627 251.2010 0003144  53.5000 306.6513 15.01098333100980
UM5-EOSAT               
1 60555U 24149CR  26172.77002781  .00003348  00000+0  26288-3 0  9997
2 60555  97.6723 251.4521 0008956 101.1074 259.1158 15.01562808100906
LASARSAT                
1 62391U 24247Q   26173.20827942  .00024063  00000+0  47719-3 0  9998
2 62391  44.9730 233.9932 0007623   0.6101 359.4797 15.46631788 84091
CROCUBE                 
1 62394U 24247T   26173.45795366  .00026289  00000+0  48673-3 0  9994
2 62394  44.9701 229.8368 0007508   6.8076 353.2915 15.48568004 84164
TEVEL2-4                
1 63213U 25052D   26172.68117075  .00014398  00000+0  42941-3 0  9999
2 63213  97.3895  69.0801 0004965  94.6694 265.5117 15.34745367 70801
TEVEL2-5                
1 63214U 25052E   26173.41945353  .00013715  00000+0  41121-3 0  9991
2 63214  97.3894  69.7659 0004889  94.7236 265.4565 15.34589962 70912
TEVEL2-6                
1 63215U 25052F   26173.23628066  .00013939  00000+0  41841-3 0  9998
2 63215  97.3899  69.5668 0004757  95.5111 264.6675 15.34550217 70881
TEVEL2-1                
1 63217U 25052H   26172.67998997  .00013561  00000+0  41432-3 0  9997
2 63217  97.3870  68.6292 0004905 104.4145 255.7643 15.33994869 70786
TEVEL2-3                
1 63218U 25052J   26173.19630016  .00013736  00000+0  41869-3 0  9999
2 63218  97.3873  69.1678 0004858 103.9663 256.2121 15.34065187 70869
TEVEL2-2                
1 63219U 25052K   26173.26735470  .00013780  00000+0  42062-3 0  9993
2 63219  97.3874  69.2190 0004903 103.8133 256.3656 15.34020096 70878
TEVEL2-9                
1 63237U 25052AD  26173.44730229  .00012471  00000+0  40513-3 0  9995
2 63237  97.3936  68.7627 0008184 116.4765 243.7317 15.32032450 70837
TEVEL2-7                
1 63238U 25052AE  26173.22791571  .00011733  00000+0  38497-3 0  9997
2 63238  97.3939  68.4578 0008225 117.2661 242.9419 15.31728224 70792
TEVEL2-8                
1 63239U 25052AF  26173.69351598  .00011938  00000+0  39166-3 0  9991
2 63239  97.3936  68.8989 0008249 116.5342 243.6747 15.31724980 70869
FORESAIL-1 PRIME        
1 66778U 25276DS  26173.79460901  .00003446  00000+0  16914-3 0  9991
2 66778  97.4197 246.9630 0003926  92.2358 267.9326 15.18744024 31254
